IRIDIUM 106             
1 41917U 17003A   25040.94835854  .00000092  00000+0  25761-4 0  9995
2 41917  86.3964 294.2239 0002480  82.6106 277.5371 14.34218772422658
IRIDIUM 103             
1 41918U 17003B   25040.93567602  .00000375  00000+0  12697-3 0  9995
2 41918  86.3964 294.1303 0002298 100.1308 260.0147 14.34213264422678
IRIDIUM 109             
1 41919U 17003C   25040.94201580  .00000292  00000+0  97052-4 0  9994
2 41919  86.3966 294.1792 0001855  89.7092 270.4317 14.34219011422640
IRIDIUM 102             
1 41920U 17003D   25040.77076448  .00000327  00000+0  10959-3 0  9999
2 41920  86.3962 294.1846 0002109  82.2202 277.9233 14.34216661422706
IRIDIUM 105             
1 41921U 17003E   25040.88104188  .00000217  00000+0  70453-4 0  9999
2 41921  86.3931 262.5527 0002102  89.8934 270.2503 14.34215756424573
IRIDIUM 104             
1 41922U 17003F   25040.78345050  .00000031  00000+0  39358-5 0  9998
2 41922  86.3964 294.2144 0001733  96.9530 263.1863 14.34217426422694
IRIDIUM 114             
1 41923U 17003G   25040.92932980  .00000430  00000+0  14631-3 0  9997
2 41923  86.3961 294.1383 0002185  91.9078 268.2368 14.34216315422692
IRIDIUM 108             
1 41924U 17003H   25040.88785335  .00000456  00000+0  15588-3 0  9993
2 41924  86.3927 262.4593 0002315  82.9333 277.2126 14.34219247424540
